{"type":"FeatureCollection","features":[{"type":"Feature","properties":{"n":"4th and MacDonald","pl":100},"geometry":{"type":"Point","coordinates":[-123.167928,49.268683]}},{"type":"Feature","properties":{"n":"15th Avenue Coop","pl":8},"geometry":{"type":"Point","coordinates":[-123.078839,49.257119]}},{"type":"Feature","properties":{"n":"16 Oaks","pl":55},"geometry":{"type":"Point","coordinates":[-123.127664,49.256748]}},{"type":"Feature","properties":{"n":"16th & Pine Community Garden","pl":16},"geometry":{"type":"Point","coordinates":[-123.143776,49.257089]}},{"type":"Feature","properties":{"n":"221A","pl":10},"geometry":{"type":"Point","coordinates":[-123.097379,49.277888]}},{"type":"Feature","properties":{"n":"1755 West 14th - Private apartment building garden","pl":0},"geometry":{"type":"Point","coordinates":[-123.14487,49.25905]}},{"type":"Feature","properties":{"n":"Aberthau Garden Project","pl":10},"geometry":{"type":"Point","coordinates":[-123.204778,49.272143]}},{"type":"Feature","properties":{"n":"Adanac Park Community Garden","pl":50},"geometry":{"type":"Point","coordinates":[-123.024395,49.275582]}},{"type":"Feature","properties":{"n":"Alma and 10th","pl":100},"geometry":{"type":"Point","coordinates":[-123.185464,49.26324]}},{"type":"Feature","properties":{"n":"Astoria Community Garden","pl":138},"geometry":{"type":"Point","coordinates":[-123.087377,49.28134]}},{"type":"Feature","properties":{"n":"Atira Community Garden","pl":15},"geometry":{"type":"Point","coordinates":[-123.087121,49.281091]}},{"type":"Feature","properties":{"n":"BC Seniors Living Assoc. Garden","pl":11},"geometry":{"type":"Point","coordinates":[-123.032578,49.266474]}},{"type":"Feature","properties":{"n":"Beaconsfield Park Community Garden","pl":40},"geometry":{"type":"Point","coordinates":[-123.050606,49.255639]}},{"type":"Feature","properties":{"n":"Brewery Creek Community Garden","pl":40},"geometry":{"type":"Point","coordinates":[-123.095733,49.264165]}},{"type":"Feature","properties":{"n":"Briarpatch Garden","pl":20},"geometry":{"type":"Point","coordinates":[-123.091439,49.282147]}},{"type":"Feature","properties":{"n":"Brightside Home Foundation - King's Daughters","pl":3},"geometry":{"type":"Point","coordinates":[-123.075082,49.260319]}},{"type":"Feature","properties":{"n":"Brightside Home Foundation - Wallace Wilson","pl":3},"geometry":{"type":"Point","coordinates":[-123.071167,49.264956]}},{"type":"Feature","properties":{"n":"Broadway and Alma","pl":100},"geometry":{"type":"Point","coordinates":[-123.185381,49.264105]}},{"type":"Feature","properties":{"n":"Broadway and Victoria","pl":100},"geometry":{"type":"Point","coordinates":[-123.064979,49.262089]}},{"type":"Feature","properties":{"n":"Cambie Park Community Garden","pl":30},"geometry":{"type":"Point","coordinates":[-123.118628,49.221309]}},{"type":"Feature","properties":{"n":"Cambridge Community Garden","pl":5},"geometry":{"type":"Point","coordinates":[-123.062203,49.285491]}},{"type":"Feature","properties":{"n":"Cedar Cottage Community Garden","pl":61},"geometry":{"type":"Point","coordinates":[-123.064255,49.251444]}},{"type":"Feature","properties":{"n":"Cedar Cottage Neighourhood House Edible Garden","pl":12},"geometry":{"type":"Point","coordinates":[-123.065148,49.248887]}},{"type":"Feature","properties":{"n":"Centrepoint Gardens","pl":20},"geometry":{"type":"Point","coordinates":[-123.102952,49.258797]}},{"type":"Feature","properties":{"n":"Champlain Place Community Garden","pl":8},"geometry":{"type":"Point","coordinates":[-123.035246,49.21673]}},{"type":"Feature","properties":{"n":"Charleson Park Community Garden","pl":38},"geometry":{"type":"Point","coordinates":[-123.125738,49.267765]}},{"type":"Feature","properties":{"n":"Chester's Field Garden","pl":11},"geometry":{"type":"Point","coordinates":[-123.089607,49.236648]}},{"type":"Feature","properties":{"n":"Cheyenne Community Garden","pl":35},"geometry":{"type":"Point","coordinates":[-123.048059,49.241495]}},{"type":"Feature","properties":{"n":"Chilean Housing Coop","pl":10},"geometry":{"type":"Point","coordinates":[-123.032907,49.23112]}},{"type":"Feature","properties":{"n":"China Creek Community Garden","pl":23},"geometry":{"type":"Point","coordinates":[-123.078868,49.261993]}},{"type":"Feature","properties":{"n":"China Creek Housing Co-op","pl":30},"geometry":{"type":"Point","coordinates":[-123.083269,49.264311]}},{"type":"Feature","properties":{"n":"Chinatown Peace Church","pl":10},"geometry":{"type":"Point","coordinates":[-123.095684,49.280471]}},{"type":"Feature","properties":{"n":"Church of the Good Sheppard","pl":8},"geometry":{"type":"Point","coordinates":[-123.108965,49.261487]}},{"type":"Feature","properties":{"n":"City Farmer Compost Demonstration Centre","pl":1},"geometry":{"type":"Point","coordinates":[-123.149723,49.2667]}},{"type":"Feature","properties":{"n":"City Hall expansion","pl":10},"geometry":{"type":"Point","coordinates":[-123.113936,49.261316]}},{"type":"Feature","properties":{"n":"City Hall Lawn Garden","pl":38},"geometry":{"type":"Point","coordinates":[-123.113936,49.261316]}},{"type":"Feature","properties":{"n":"Cityview Baptist Church","pl":6},"geometry":{"type":"Point","coordinates":[-123.099148,49.245966]}},{"type":"Feature","properties":{"n":"Collingwood Community Gardens","pl":30},"geometry":{"type":"Point","coordinates":[-123.0302,49.23774]}},{"type":"Feature","properties":{"n":"Colonial Arms Vegetable Garden","pl":15},"geometry":{"type":"Point","coordinates":[-123.127177,49.207365]}},{"type":"Feature","properties":{"n":"Community Alternatives Coop Community Garden","pl":20},"geometry":{"type":"Point","coordinates":[-123.149194,49.270065]}},{"type":"Feature","properties":{"n":"Copley Community Orchard","pl":3},"geometry":{"type":"Point","coordinates":[-123.057874,49.249802]}},{"type":"Feature","properties":{"n":"Cottonwood Community Garden","pl":119},"geometry":{"type":"Point","coordinates":[-123.083754,49.273799]}},{"type":"Feature","properties":{"n":"Creekside Community Garden","pl":23},"geometry":{"type":"Point","coordinates":[-123.103586,49.272222]}},{"type":"Feature","properties":{"n":"CROWS Point Community Garden","pl":37},"geometry":{"type":"Point","coordinates":[-123.057994,49.248872]}},{"type":"Feature","properties":{"n":"Cypress Community Garden","pl":55},"geometry":{"type":"Point","coordinates":[-123.145664,49.266277]}},{"type":"Feature","properties":{"n":"Dany Guincher House","pl":3},"geometry":{"type":"Point","coordinates":[-123.093537,49.262568]}},{"type":"Feature","properties":{"n":"Deeper Roots Seniors Community Garden","pl":10},"geometry":{"type":"Point","coordinates":[-123.121845,49.236936]}},{"type":"Feature","properties":{"n":"Downtown Intercultural Gardeners Society (DIGS)","pl":46},"geometry":{"type":"Point","coordinates":[-123.129001,49.280596]}},{"type":"Feature","properties":{"n":"Dunbar and 39th","pl":100},"geometry":{"type":"Point","coordinates":[-123.18568,49.236212]}},{"type":"Feature","properties":{"n":"Dundee Community Garden","pl":23},"geometry":{"type":"Point","coordinates":[-123.047974,49.235765]}},{"type":"Feature","properties":{"n":"East Boulevard Allotment Plots","pl":71},"geometry":{"type":"Point","coordinates":[-123.150548,49.220983]}},{"type":"Feature","properties":{"n":"East Broadway Community Garden","pl":26},"geometry":{"type":"Point","coordinates":[-123.088223,49.262778]}},{"type":"Feature","properties":{"n":"Elisabeth Rogers Community Garden","pl":56},"geometry":{"type":"Point","coordinates":[-123.107223,49.264508]}},{"type":"Feature","properties":{"n":"Emma G Coop","pl":8},"geometry":{"type":"Point","coordinates":[-123.088762,49.264569]}},{"type":"Feature","properties":{"n":"Farmers at 57th","pl":32},"geometry":{"type":"Point","coordinates":[-123.116905,49.219033]}},{"type":"Feature","properties":{"n":"Fraserlands Community Garden (Riverfront Park)","pl":38},"geometry":{"type":"Point","coordinates":[-123.050654,49.205877]}},{"type":"Feature","properties":{"n":"Frog Hollow Neighbourhood House Garden 1","pl":5},"geometry":{"type":"Point","coordinates":[-123.049734,49.271203]}},{"type":"Feature","properties":{"n":"Frog Hollow Neighbourhood House Garden 2","pl":6},"geometry":{"type":"Point","coordinates":[-123.044393,49.265408]}},{"type":"Feature","properties":{"n":"FSE Herb Garden (Fransiscan Sister of the Eucharist)","pl":5},"geometry":{"type":"Point","coordinates":[-123.046256,49.276805]}},{"type":"Feature","properties":{"n":"Garden of Eatin'","pl":26},"geometry":{"type":"Point","coordinates":[-123.065892,49.260638]}},{"type":"Feature","properties":{"n":"Grace Memorial Church","pl":15},"geometry":{"type":"Point","coordinates":[-123.087419,49.256408]}},{"type":"Feature","properties":{"n":"Grandview Elementary Community Garden","pl":24},"geometry":{"type":"Point","coordinates":[-123.07831,49.265917]}},{"type":"Feature","properties":{"n":"Grandview Terrace","pl":12},"geometry":{"type":"Point","coordinates":[-123.073613,49.266233]}},{"type":"Feature","properties":{"n":"Habitat Villa - Metro Housing","pl":4},"geometry":{"type":"Point","coordinates":[-123.190387,49.270456]}},{"type":"Feature","properties":{"n":"Hastings Community Centre Learning Garden","pl":25},"geometry":{"type":"Point","coordinates":[-123.039432,49.280374]}},{"type":"Feature","properties":{"n":"Hastings St Folk Garden","pl":150},"geometry":{"type":"Point","coordinates":[-123.101596,49.281441]}},{"type":"Feature","properties":{"n":"Hemlock Court","pl":4},"geometry":{"type":"Point","coordinates":[-123.075409,49.25571]}},{"type":"Feature","properties":{"n":"HFBC Housing Foundation","pl":12},"geometry":{"type":"Point","coordinates":[-123.152475,49.267434]}},{"type":"Feature","properties":{"n":"HFBC Housing Foundation","pl":12},"geometry":{"type":"Point","coordinates":[-123.043281,49.276211]}},{"type":"Feature","properties":{"n":"HFBC Housing Foundation","pl":12},"geometry":{"type":"Point","coordinates":[-123.043697,49.240111]}},{"type":"Feature","properties":{"n":"John Hendry (Trout Lake) Park","pl":4},"geometry":{"type":"Point","coordinates":[-123.063679,49.255098]}},{"type":"Feature","properties":{"n":"John McBride Community Garden","pl":46},"geometry":{"type":"Point","coordinates":[-123.115222,49.269683]}},{"type":"Feature","properties":{"n":"Kaslo Gardens Community Vegetable Garden","pl":16},"geometry":{"type":"Point","coordinates":[-123.049075,49.257436]}},{"type":"Feature","properties":{"n":"Kerrisdale Community Garden","pl":22},"geometry":{"type":"Point","coordinates":[-123.148273,49.217746]}},{"type":"Feature","properties":{"n":"Kingscrest Park Community Garden","pl":20},"geometry":{"type":"Point","coordinates":[-123.074332,49.247009]}},{"type":"Feature","properties":{"n":"Kits Village Collaborative Garden","pl":0},"geometry":{"type":"Point","coordinates":[-123.151428,49.273327]}},{"type":"Feature","properties":{"n":"Kitsilano Community Centre Garden","pl":15},"geometry":{"type":"Point","coordinates":[-123.162076,49.261968]}},{"type":"Feature","properties":{"n":"Kitsilano Community Garden","pl":55},"geometry":{"type":"Point","coordinates":[-123.151024,49.266616]}},{"type":"Feature","properties":{"n":"Kitsilano Neighbourhood House","pl":5},"geometry":{"type":"Point","coordinates":[-123.185242,49.268657]}},{"type":"Feature","properties":{"n":"Kiwassa Neighbourhood House Community Garden","pl":11},"geometry":{"type":"Point","coordinates":[-123.05605,49.28572]}},{"type":"Feature","properties":{"n":"Ladybug Garden","pl":48},"geometry":{"type":"Point","coordinates":[-123.070398,49.262968]}},{"type":"Feature","properties":{"n":"Langara College Community Garden","pl":26},"geometry":{"type":"Point","coordinates":[-123.105789,49.224525]}},{"type":"Feature","properties":{"n":"Let\u2019s Grow Together! Community Garden","pl":6},"geometry":{"type":"Point","coordinates":[-123.05491,49.282211]}},{"type":"Feature","properties":{"n":"Maclean Housing","pl":65},"geometry":{"type":"Point","coordinates":[-123.093591,49.278429]}},{"type":"Feature","properties":{"n":"Macleod Manor Community Garden","pl":5},"geometry":{"type":"Point","coordinates":[-123.13963,49.206901]}},{"type":"Feature","properties":{"n":"Maple Community Garden","pl":53},"geometry":{"type":"Point","coordinates":[-123.148045,49.266313]}},{"type":"Feature","properties":{"n":"Marpole Community Garden","pl":42},"geometry":{"type":"Point","coordinates":[-123.14096,49.2078]}},{"type":"Feature","properties":{"n":"Marpole Family Place","pl":8},"geometry":{"type":"Point","coordinates":[-123.134729,49.208796]}},{"type":"Feature","properties":{"n":"Marpole Place expansion","pl":6},"geometry":{"type":"Point","coordinates":[-123.134729,49.208796]}},{"type":"Feature","properties":{"n":"Matheson Heights Housing Coop","pl":16},"geometry":{"type":"Point","coordinates":[-123.025711,49.213174]}},{"type":"Feature","properties":{"n":"McSpadden Park Community Garden","pl":18},"geometry":{"type":"Point","coordinates":[-123.066446,49.266514]}},{"type":"Feature","properties":{"n":"Means of Production Garden","pl":20},"geometry":{"type":"Point","coordinates":[-123.08502,49.265501]}},{"type":"Feature","properties":{"n":"Menno Simmons centre","pl":10},"geometry":{"type":"Point","coordinates":[-123.193944,49.262634]}},{"type":"Feature","properties":{"n":"Moberley Cultural Herb Garden","pl":5},"geometry":{"type":"Point","coordinates":[-123.086857,49.214968]}},{"type":"Feature","properties":{"n":"MOBY Community Garden","pl":45},"geometry":{"type":"Point","coordinates":[-123.068888,49.260473]}},{"type":"Feature","properties":{"n":"Mole Hill Community Gardens","pl":70},"geometry":{"type":"Point","coordinates":[-123.130556,49.282056]}},{"type":"Feature","properties":{"n":"Mount Pleasant Community Garden","pl":30},"geometry":{"type":"Point","coordinates":[-123.105641,49.257396]}},{"type":"Feature","properties":{"n":"Mount Pleasant Demonstration Garden","pl":8},"geometry":{"type":"Point","coordinates":[-123.105469,49.256471]}},{"type":"Feature","properties":{"n":"Nelson Park Community Garden","pl":38},"geometry":{"type":"Point","coordinates":[-123.130228,49.28309]}},{"type":"Feature","properties":{"n":"Nicholson Towers","pl":28},"geometry":{"type":"Point","coordinates":[-123.127911,49.282812]}},{"type":"Feature","properties":{"n":"Nicholson Towers","pl":3},"geometry":{"type":"Point","coordinates":[-123.092994,49.245568]}},{"type":"Feature","properties":{"n":"Oak and 41st","pl":100},"geometry":{"type":"Point","coordinates":[-123.128507,49.233617]}},{"type":"Feature","properties":{"n":"Our Lady of Sorrows Convent","pl":9},"geometry":{"type":"Point","coordinates":[-123.045928,49.276969]}},{"type":"Feature","properties":{"n":"P'ipa:m Lelum Indigenous Garden","pl":1},"geometry":{"type":"Point","coordinates":[-123.049716,49.271218]}},{"type":"Feature","properties":{"n":"Pandora Park Community Garden","pl":66},"geometry":{"type":"Point","coordinates":[-123.059377,49.282392]}},{"type":"Feature","properties":{"n":"Pender Community Garden","pl":0},"geometry":{"type":"Point","coordinates":[-123.052293,49.28068]}},{"type":"Feature","properties":{"n":"Pine  St. Community Orchard","pl":47},"geometry":{"type":"Point","coordinates":[-123.143502,49.26624]}},{"type":"Feature","properties":{"n":"Pine St. Community Garden","pl":40},"geometry":{"type":"Point","coordinates":[-123.141363,49.266421]}},{"type":"Feature","properties":{"n":"Pine Street Community Garden (6th and Fir Park)","pl":16},"geometry":{"type":"Point","coordinates":[-123.142085,49.26634]}},{"type":"Feature","properties":{"n":"Riley Park","pl":20},"geometry":{"type":"Point","coordinates":[-123.104487,49.242985]}},{"type":"Feature","properties":{"n":"Robson Park Community Garden","pl":44},"geometry":{"type":"Point","coordinates":[-123.092319,49.258675]}},{"type":"Feature","properties":{"n":"Robson Park Coop","pl":40},"geometry":{"type":"Point","coordinates":[-123.099907,49.257241]}},{"type":"Feature","properties":{"n":"Rooted for Life Garden","pl":0},"geometry":{"type":"Point","coordinates":[-123.132872,49.287355]}},{"type":"Feature","properties":{"n":"Sahalli  Community Garden","pl":54},"geometry":{"type":"Point","coordinates":[-123.088593,49.263685]}},{"type":"Feature","properties":{"n":"Skeena Community Garden","pl":16},"geometry":{"type":"Point","coordinates":[-123.030508,49.264126]}},{"type":"Feature","properties":{"n":"South Vancouver Family Place 1","pl":8},"geometry":{"type":"Point","coordinates":[-123.059338,49.214344]}},{"type":"Feature","properties":{"n":"South Vancouver Family Place 2","pl":3},"geometry":{"type":"Point","coordinates":[-123.056519,49.214157]}},{"type":"Feature","properties":{"n":"South Vancouver Youth Centre Day Program","pl":3},"geometry":{"type":"Point","coordinates":[-123.090284,49.240664]}},{"type":"Feature","properties":{"n":"SPEC Cambie Communal Garden","pl":17},"geometry":{"type":"Point","coordinates":[-123.115518,49.261593]}},{"type":"Feature","properties":{"n":"SPEC Rooftop Garden","pl":9},"geometry":{"type":"Point","coordinates":[-123.117834,49.285735]}},{"type":"Feature","properties":{"n":"St. Augustines Anglican Church","pl":8},"geometry":{"type":"Point","coordinates":[-123.134266,49.207178]}},{"type":"Feature","properties":{"n":"Stanley Park Community Garden","pl":32},"geometry":{"type":"Point","coordinates":[-123.138555,49.293672]}},{"type":"Feature","properties":{"n":"Still Creek Community Garden","pl":45},"geometry":{"type":"Point","coordinates":[-123.045562,49.243584]}},{"type":"Feature","properties":{"n":"Strathcona Community Garden","pl":200},"geometry":{"type":"Point","coordinates":[-123.087972,49.276003]}},{"type":"Feature","properties":{"n":"Tea Swamp Community Garden","pl":20},"geometry":{"type":"Point","coordinates":[-123.099011,49.256935]}},{"type":"Feature","properties":{"n":"Tenth Church","pl":10},"geometry":{"type":"Point","coordinates":[-123.105861,49.262338]}},{"type":"Feature","properties":{"n":"The James Garden & Social Community","pl":12},"geometry":{"type":"Point","coordinates":[-123.111763,49.269003]}},{"type":"Feature","properties":{"n":"The Rise on Cambie","pl":18},"geometry":{"type":"Point","coordinates":[-123.114487,49.264007]}},{"type":"Feature","properties":{"n":"Trillium Park North Artists Garden","pl":4},"geometry":{"type":"Point","coordinates":[-123.092694,49.275287]}},{"type":"Feature","properties":{"n":"UP! Elgin community garden","pl":24},"geometry":{"type":"Point","coordinates":[-123.084388,49.236558]}},{"type":"Feature","properties":{"n":"Urban Acres","pl":30},"geometry":{"type":"Point","coordinates":[-123.141077,49.270591]}},{"type":"Feature","properties":{"n":"Vancouver Compost Demonstration Garden","pl":0},"geometry":{"type":"Point","coordinates":[-123.150392,49.266638]}},{"type":"Feature","properties":{"n":"Vera Community Garden","pl":12},"geometry":{"type":"Point","coordinates":[-123.119179,49.209683]}},{"type":"Feature","properties":{"n":"Village on False Creek","pl":47},"geometry":{"type":"Point","coordinates":[-123.110591,49.270822]}},{"type":"Feature","properties":{"n":"W 65th Community Garden","pl":100},"geometry":{"type":"Point","coordinates":[-123.117979,49.210984]}},{"type":"Feature","properties":{"n":"Wall Street Community Garden","pl":42},"geometry":{"type":"Point","coordinates":[-123.061869,49.28657]}},{"type":"Feature","properties":{"n":"Woodland Park Community Garden","pl":64},"geometry":{"type":"Point","coordinates":[-123.073838,49.278454]}}]}